     2.100          NAVIGATION                              RINEX VERSION / TYPE
fic2rin                                 01/02/2013 00:04:08 PGM / RUN BY / DATE
                                                            END OF HEADER
19 13  1  1 10  0  0.0 -.336012337357D-03 -.329691829393D-11  .000000000000D+00
     .800000000000D+01 -.895312500000D+02  .446447167745D-08  .212398091283D+01
    -.454485416412D-05  .878083531279D-02  .989250838757D-05  .515365714455D+04
     .208800000000D+06 -.204890966415D-06  .210636271538D+00  .160187482834D-06
     .962035990558D+00  .190875000000D+03  .274910494600D+00 -.794604527039D-08
    -.158578033983D-09  .100000000000D+01  .172100000000D+04  .000000000000D+00
     .240000000000D+01  .000000000000D+00 -.144354999065D-07  .800000000000D+01
     .201606000000D+06  .400000000000D+01
20 13  1  1 10  0  0.0  .784401781857D-04  .136424205266D-11  .000000000000D+00
     .310000000000D+02  .111875000000D+02  .568130807786D-08 -.137830743700D+01
     .590458512306D-06  .543691008352D-02  .458396971226D-05  .515355587578D+04
     .208800000000D+06  .707805156708D-07  .216474101578D+01  .126659870148D-06
     .928494861686D+00  .273593750000D+03  .128120406096D+01 -.867857578323D-08
    -.978612191697D-10  .100000000000D+01  .172100000000D+04  .000000000000D+00
     .240000000000D+01  .000000000000D+00 -.791624188423D-08  .310000000000D+02
     .201606000000D+06  .400000000000D+01
21 13  1  1 10  0  0.0 -.271889381111D-03 -.227373675443D-11  .000000000000D+00
     .980000000000D+02  .254687500000D+02  .523093217504D-08 -.837826767191D+00
     .146590173244D-05  .195909671020D-01  .903382897377D-05  .515375308037D+04
     .208800000000D+06  .949949026108D-07  .116899683256D+01  .419095158577D-06
     .931187965134D+00  .190187500000D+03 -.219165188100D+01 -.852535511526D-08
     .240724312848D-09  .100000000000D+01  .172100000000D+04  .000000000000D+00
     .240000000000D+01  .000000000000D+00 -.111758708954D-07  .980000000000D+02
     .201606000000D+06  .400000000000D+01
22 13  1  1 10  0  0.0  .154722947627D-03  .909494701773D-12  .000000000000D+00
     .700000000000D+02  .107500000000D+02  .556380318331D-08 -.261913310692D+01
     .521540641785D-06  .614826451056D-02  .469386577606D-05  .515365837860D+04
     .208800000000D+06  .484287738800D-07  .222124493922D+01 -.335276126862D-07
     .925630119913D+00  .270531250000D+03 -.202408532796D+01 -.849249660371D-08
    -.746459664470D-10  .100000000000D+01  .172100000000D+04  .000000000000D+00
     .240000000000D+01  .000000000000D+00 -.172294676304D-07  .700000000000D+02
     .201606000000D+06  .400000000000D+01
24 13  1  1 10  0  0.0  .138767063618D-05 -.682121026330D-12  .000000000000D+00
     .700000000000D+01  .832812500000D+02  .446447167745D-08  .127968351854D+01
     .426359474659D-05  .433328910731D-03  .789575278759D-05  .515371624756D+04
     .208800000000D+06  .391155481339D-07 -.198247288506D+01 -.260770320892D-07
     .959296544792D+00  .227531250000D+03 -.150646430823D+00 -.810140888477D-08
     .261439461432D-09  .100000000000D+01  .172100000000D+04  .000000000000D+00
     .240000000000D+01  .000000000000D+00  .419095158577D-08  .700000000000D+01
     .201606000000D+06  .400000000000D+01
25 13  1  1 10  0  0.0  .599958002567D-04  .238742359215D-11  .000000000000D+00
     .630000000000D+02 -.140937500000D+02  .465412243431D-08 -.118701482944D+01
    -.724568963051D-06  .195109786000D-02  .260211527348D-05  .515360696411D+04
     .208800000000D+06  .391155481339D-07 -.934747449629D+00  .149011611938D-07
     .971196375416D+00  .336093750000D+03  .600340998384D+00 -.833606151614D-08
     .860750139413D-10  .100000000000D+01  .172100000000D+04  .000000000000D+00
     .240000000000D+01  .000000000000D+00  .512227416039D-08  .630000000000D+02
     .201606000000D+06  .400000000000D+01
26 13  1  1 10  0  0.0 -.154319219291D-03  .135287336889D-10  .000000000000D+00
     .860000000000D+02 -.456250000000D+01  .387444710056D-08  .158788047723D+01
    -.422820448875D-06  .209887466626D-01  .105630606413D-04  .515366228867D+04
     .208800000000D+06 -.335276126862D-06 -.293138765323D+01 -.391155481339D-06
     .981128060425D+00  .190500000000D+03  .121339111514D+01 -.783746931920D-08
    -.403945397376D-09  .100000000000D+01  .172100000000D+04  .000000000000D+00
     .240000000000D+01  .000000000000D+00 -.605359673500D-08  .860000000000D+02
     .201606000000D+06  .400000000000D+01
27 13  1  1 10  0  0.0 -.199391506612D-03  .363797880709D-11  .000000000000D+00
     .101000000000D+03 -.172187500000D+02  .577274045781D-08 -.256599381020D+01
    -.103563070297D-05  .567766150925D-02  .253506004810D-05  .515361825752D+04
     .208800000000D+06  .108033418655D-06 -.918809178056D+00 -.800937414169D-07
     .976067670256D+00  .338875000000D+03  .852114179599D+00 -.821891377932D-08
     .775032283206D-10  .100000000000D+01  .172100000000D+04  .000000000000D+00
     .240000000000D+01  .630000000000D+02 -.190921127796D-07  .101000000000D+03
     .201606000000D+06  .400000000000D+01
28 13  1  1 10  0  0.0  .219376292080D-03  .352429196937D-11  .000000000000D+00
     .480000000000D+02 -.293437500000D+02  .437053919336D-08 -.269293807303D+01
    -.157020986080D-05  .185919486685D-01  .197626650333D-05  .515363469696D+04
     .208800000000D+06  .279396772385D-06 -.873405340107D+00  .279396772385D-07
     .981546245798D+00  .348625000000D+03 -.179864040631D+01 -.798818988303D-08
     .132862677121D-09  .100000000000D+01  .172100000000D+04  .000000000000D+00
     .240000000000D+01  .000000000000D+00 -.107102096081D-07  .480000000000D+02
     .201606000000D+06  .400000000000D+01
29 13  1  1 10  0  0.0  .393406022340D-03  .397903932026D-11  .000000000000D+00
     .770000000000D+02 -.944375000000D+02  .441982696068D-08 -.558209229804D+00
    -.476650893688D-05  .181728100870D-02  .897608697414D-05  .515372767258D+04
     .208800000000D+06  .000000000000D+00  .166978626736D+00 -.558793544769D-07
     .965358530601D+00  .208906250000D+03 -.111046790866D+01 -.801854829044D-08
    -.124648049234D-09  .100000000000D+01  .172100000000D+04  .000000000000D+00
     .240000000000D+01  .000000000000D+00 -.931322574615D-08  .770000000000D+02
     .201606000000D+06  .400000000000D+01
31 13  1  1 10  0  0.0  .295340549201D-03  .204636307899D-11  .000000000000D+00
     .600000000000D+02  .796250000000D+02  .398838041777D-08  .167988565398D-01
     .410154461861D-05  .812920648605D-02  .765174627304D-05  .515380130005D+04
     .208800000000D+06 -.223517417908D-07 -.195249307665D+01 -.126659870148D-06
     .980704792874D+00  .239531250000D+03 -.823604994454D+00 -.799997608826D-08
     .288583449230D-09  .100000000000D+01  .172100000000D+04  .000000000000D+00
     .240000000000D+01  .000000000000D+00 -.135041773319D-07  .600000000000D+02
     .201606000000D+06  .400000000000D+01
32 13  1  1 10  0  0.0 -.522159505635D-03 -.352429196937D-11  .000000000000D+00
     .910000000000D+02 -.206250000000D+01  .521843165434D-08  .643810925926D+00
    -.275671482086D-06  .116826215526D-01  .467523932457D-05  .515377149582D+04
     .208800000000D+06  .242143869400D-06  .230153679570D+01 -.102445483208D-06
     .949896235517D+00  .281312500000D+03 -.422676921025D+00 -.851392606777D-08
    -.187507810453D-09  .100000000000D+01  .172100000000D+04  .000000000000D+00
     .240000000000D+01  .000000000000D+00 -.325962901115D-08  .910000000000D+02
     .201606000000D+06  .400000000000D+01
 1 13  1  1  9 59 44.0  .290766358376D-03  .216004991671D-11  .000000000000D+00
     .360000000000D+02  .266250000000D+02  .453661753976D-08  .460136405751D+00
     .141188502312D-05  .152916915249D-02  .101272016764D-04  .515371216202D+04
     .208784000000D+06  .558793544769D-08  .116627095829D+01  .484287738800D-07
     .959871288732D+00  .180000000000D+03  .501684717251D+00 -.798318967475D-08
     .351086052715D-09  .100000000000D+01  .172100000000D+04  .000000000000D+00
     .240000000000D+01  .000000000000D+00  .838190317154D-08  .360000000000D+02
     .208356000000D+06  .400000000000D+01
 1 13  1  1 11 59 44.0  .290782656521D-03  .216004991671D-11  .000000000000D+00
     .370000000000D+02  .249375000000D+02  .460590614019D-08  .151094373852D+01
     .135600566864D-05  .152848928701D-02  .984966754913D-05  .515370989609D+04
     .215984000000D+06 -.242143869400D-07  .116621354607D+01  .465661287308D-07
     .959873769841D+00  .188500000000D+03  .501035854566D+00 -.797426073140D-08
     .345371528968D-09  .100000000000D+01  .172100000000D+04  .000000000000D+00
     .240000000000D+01  .000000000000D+00  .838190317154D-08  .370000000000D+02
     .208806000000D+06  .400000000000D+01
 2 13  1  1 12  0  0.0  .413339585066D-03  .136424205266D-11  .000000000000D+00
     .840000000000D+02  .200937500000D+02  .494127725260D-08  .250521553857D+01
     .948086380959D-06  .118135181256D-01  .111069530249D-04  .515358809280D+04
     .216000000000D+06 -.217929482460D-06  .114773648550D+01 -.104308128357D-06
     .938407315174D+00  .153156250000D+03 -.269883948895D+01 -.804283501636D-08
     .405016870578D-09  .100000000000D+01  .172100000000D+04  .000000000000D+00
     .240000000000D+01  .000000000000D+00 -.176951289177D-07  .840000000000D+02
     .208806000000D+06  .400000000000D+01
 3 13  1  1 12  0  0.0  .149391591549D-03  .511590769747D-11  .000000000000D+00
     .580000000000D+02 -.107187500000D+03  .506806824824D-08  .266770325257D+01
    -.563450157642D-05  .159254589817D-01  .732019543648D-05  .515367126846D+04
     .216000000000D+06  .968575477600D-07 -.193378576594D-01 -.234693288803D-06
     .933510272976D+00  .221593750000D+03  .126179708335D+01 -.809962309610D-08
    -.205365697163D-09  .100000000000D+01  .172100000000D+04  .000000000000D+00
     .340000000000D+01  .000000000000D+00 -.465661287308D-08  .580000000000D+02
     .208806000000D+06  .400000000000D+01
